[
  {
    "CCSDS_OMM_VERS": "3.0",
    "COMMENT": "GENERATED VIA SPACE-TRACK.ORG API",
    "CREATION_DATE": "2026-02-19T17:59:09",
    "ORIGINATOR": "18 SPCS",
    "OBJECT_NAME": "SL-14 DEB",
    "OBJECT_ID": "1978-100K",
    "CENTER_NAME": "EARTH",
    "REF_FRAME": "TEME",
    "TIME_SYSTEM": "UTC",
    "MEAN_ELEMENT_THEORY": "SGP4",
    "EPOCH": "2026-02-19T15:36:43.115328",
    "MEAN_MOTION": "12.77328066",
    "ECCENTRICITY": "0.00945428",
    "INCLINATION": "82.2890",
    "RA_OF_ASC_NODE": "304.7026",
    "ARG_OF_PERICENTER": "323.3047",
    "MEAN_ANOMALY": "61.6741",
    "EPHEMERIS_TYPE": "0",
    "CLASSIFICATION_TYPE": "U",
    "NORAD_CAT_ID": "19137",
    "ELEMENT_SET_NO": "999",
    "REV_AT_EPOCH": "12117",
    "BSTAR": "0.01723108600000",
    "MEAN_MOTION_DOT": "0.00003858",
    "MEAN_MOTION_DDOT": "0.0000000000000",
    "SEMIMAJOR_AXIS": "7730.369",
    "PERIOD": "112.735",
    "APOAPSIS": "1425.319",
    "PERIAPSIS": "1279.149",
    "OBJECT_TYPE": "DEBRIS",
    "RCS_SIZE": "MEDIUM",
    "COUNTRY_CODE": "CIS",
    "LAUNCH_DATE": "1978-10-26",
    "SITE": "PKMTR",
    "DECAY_DATE": null,
    "FILE": "5039972",
    "GP_ID": "313160273",
    "TLE_LINE0": "0 SL-14 DEB",
    "TLE_LINE1": "1 19137U 78100K   26050.65049902  .00003858  00000-0  17231-1 0  9994",
    "TLE_LINE2": "2 19137  82.2890 304.7026 0094543 323.3047  61.6741 12.77328066121170"
  },
  {
    "CCSDS_OMM_VERS": "3.0",
    "COMMENT": "GENERATED VIA SPACE-TRACK.ORG API",
    "CREATION_DATE": "2026-02-19T17:59:09",
    "ORIGINATOR": "18 SPCS",
    "OBJECT_NAME": "COSMOS 1275 DEB",
    "OBJECT_ID": "1981-053LB",
    "CENTER_NAME": "EARTH",
    "REF_FRAME": "TEME",
    "TIME_SYSTEM": "UTC",
    "MEAN_ELEMENT_THEORY": "SGP4",
    "EPOCH": "2026-02-19T15:33:44.942112",
    "MEAN_MOTION": "13.62916601",
    "ECCENTRICITY": "0.01407436",
    "INCLINATION": "83.0833",
    "RA_OF_ASC_NODE": "289.7302",
    "ARG_OF_PERICENTER": "195.5197",
    "MEAN_ANOMALY": "193.6874",
    "EPHEMERIS_TYPE": "0",
    "CLASSIFICATION_TYPE": "U",
    "NORAD_CAT_ID": "17632",
    "ELEMENT_SET_NO": "999",
    "REV_AT_EPOCH": "1967",
    "BSTAR": "0.00054303966000",
    "MEAN_MOTION_DOT": "0.00000468",
    "MEAN_MOTION_DDOT": "0.0000000000000",
    "SEMIMAJOR_AXIS": "7403.248",
    "PERIOD": "105.656",
    "APOAPSIS": "1129.309",
    "PERIAPSIS": "920.917",
    "OBJECT_TYPE": "DEBRIS",
    "RCS_SIZE": "SMALL",
    "COUNTRY_CODE": "CIS",
    "LAUNCH_DATE": "1981-06-04",
    "SITE": "PKMTR",
    "DECAY_DATE": null,
    "FILE": "5039972",
    "GP_ID": "313160085",
    "TLE_LINE0": "0 COSMOS 1275 DEB",
    "TLE_LINE1": "1 17632U 81053LB  26050.64843683  .00000468  00000-0  54304-3 0  9998",
    "TLE_LINE2": "2 17632  83.0833 289.7302 0140744 195.5197 193.6874 13.62916601 19670"
  },
  {
    "CCSDS_OMM_VERS": "3.0",
    "COMMENT": "GENERATED VIA SPACE-TRACK.ORG API",
    "CREATION_DATE": "2026-02-19T17:59:09",
    "ORIGINATOR": "18 SPCS",
    "OBJECT_NAME": "SL-14 DEB",
    "OBJECT_ID": "1978-100Q",
    "CENTER_NAME": "EARTH",
    "REF_FRAME": "TEME",
    "TIME_SYSTEM": "UTC",
    "MEAN_ELEMENT_THEORY": "SGP4",
    "EPOCH": "2026-02-19T15:33:13.898592",
    "MEAN_MOTION": "11.89706991",
    "ECCENTRICITY": "0.00541930",
    "INCLINATION": "82.6166",
    "RA_OF_ASC_NODE": "297.4558",
    "ARG_OF_PERICENTER": "328.2885",
    "MEAN_ANOMALY": "58.2055",
    "EPHEMERIS_TYPE": "0",
    "CLASSIFICATION_TYPE": "U",
    "NORAD_CAT_ID": "19144",
    "ELEMENT_SET_NO": "999",
    "REV_AT_EPOCH": "63939",
    "BSTAR": "0.00102152540000",
    "MEAN_MOTION_DOT": "0.00000081",
    "MEAN_MOTION_DDOT": "0.0000000000000",
    "SEMIMAJOR_AXIS": "8105.413",
    "PERIOD": "121.038",
    "APOAPSIS": "1771.204",
    "PERIAPSIS": "1683.353",
    "OBJECT_TYPE": "DEBRIS",
    "RCS_SIZE": "MEDIUM",
    "COUNTRY_CODE": "CIS",
    "LAUNCH_DATE": "1978-10-26",
    "SITE": "PKMTR",
    "DECAY_DATE": null,
    "FILE": "5039972",
    "GP_ID": "313159776",
    "TLE_LINE0": "0 SL-14 DEB",
    "TLE_LINE1": "1 19144U 78100Q   26050.64807753  .00000081  00000-0  10215-2 0  9998",
    "TLE_LINE2": "2 19144  82.6166 297.4558 0054193 328.2885  58.2055 11.89706991639394"
  },
  {
    "CCSDS_OMM_VERS": "3.0",
    "COMMENT": "GENERATED VIA SPACE-TRACK.ORG API",
    "CREATION_DATE": "2026-02-19T17:59:09",
    "ORIGINATOR": "18 SPCS",
    "OBJECT_NAME": "FENGYUN 1C DEB",
    "OBJECT_ID": "1999-025SR",
    "CENTER_NAME": "EARTH",
    "REF_FRAME": "TEME",
    "TIME_SYSTEM": "UTC",
    "MEAN_ELEMENT_THEORY": "SGP4",
    "EPOCH": "2026-02-19T15:33:03.845952",
    "MEAN_MOTION": "13.95427103",
    "ECCENTRICITY": "0.01273132",
    "INCLINATION": "98.5527",
    "RA_OF_ASC_NODE": "303.5949",
    "ARG_OF_PERICENTER": "238.0842",
    "MEAN_ANOMALY": "150.8021",
    "EPHEMERIS_TYPE": "0",
    "CLASSIFICATION_TYPE": "U",
    "NORAD_CAT_ID": "30136",
    "ELEMENT_SET_NO": "999",
    "REV_AT_EPOCH": "97052",
    "BSTAR": "0.00029341325000",
    "MEAN_MOTION_DOT": "0.00000385",
    "MEAN_MOTION_DDOT": "0.0000000000000",
    "SEMIMAJOR_AXIS": "7287.811",
    "PERIOD": "103.194",
    "APOAPSIS": "1002.459",
    "PERIAPSIS": "816.892",
    "OBJECT_TYPE": "DEBRIS",
    "RCS_SIZE": "SMALL",
    "COUNTRY_CODE": "PRC",
    "LAUNCH_DATE": "1999-05-10",
    "SITE": "TSC",
    "DECAY_DATE": null,
    "FILE": "5039972",
    "GP_ID": "313164335",
    "TLE_LINE0": "0 FENGYUN 1C DEB",
    "TLE_LINE1": "1 30136U 99025SR  26050.64796118  .00000385  00000-0  29341-3 0  9991",
    "TLE_LINE2": "2 30136  98.5527 303.5949 0127313 238.0842 150.8021 13.95427103970523"
  },
  {
    "CCSDS_OMM_VERS": "3.0",
    "COMMENT": "GENERATED VIA SPACE-TRACK.ORG API",
    "CREATION_DATE": "2026-02-19T17:59:09",
    "ORIGINATOR": "18 SPCS",
    "OBJECT_NAME": "THOR ABLESTAR DEB",
    "OBJECT_ID": "1965-065L",
    "CENTER_NAME": "EARTH",
    "REF_FRAME": "TEME",
    "TIME_SYSTEM": "UTC",
    "MEAN_ELEMENT_THEORY": "SGP4",
    "EPOCH": "2026-02-19T15:32:55.826304",
    "MEAN_MOTION": "13.33847219",
    "ECCENTRICITY": "0.00699839",
    "INCLINATION": "90.0753",
    "RA_OF_ASC_NODE": "125.6986",
    "ARG_OF_PERICENTER": "216.2508",
    "MEAN_ANOMALY": "311.0072",
    "EPHEMERIS_TYPE": "0",
    "CLASSIFICATION_TYPE": "U",
    "NORAD_CAT_ID": "1522",
    "ELEMENT_SET_NO": "999",
    "REV_AT_EPOCH": "94412",
    "BSTAR": "0.00011319792000",
    "MEAN_MOTION_DOT": "0.00000065",
    "MEAN_MOTION_DDOT": "0.0000000000000",
    "SEMIMAJOR_AXIS": "7510.424",
    "PERIOD": "107.958",
    "APOAPSIS": "1184.850",
    "PERIAPSIS": "1079.728",
    "OBJECT_TYPE": "DEBRIS",
    "RCS_SIZE": "MEDIUM",
    "COUNTRY_CODE": "US",
    "LAUNCH_DATE": "1965-08-13",
    "SITE": "AFWTR",
    "DECAY_DATE": null,
    "FILE": "5039972",
    "GP_ID": "313156225",
    "TLE_LINE0": "0 THOR ABLESTAR DEB",
    "TLE_LINE1": "1 01522U 65065L   26050.64786836  .00000065  00000-0  11320-3 0  9994",
    "TLE_LINE2": "2 01522  90.0753 125.6986 0069984 216.2508 311.0072 13.33847219944128"
  },
  {
    "CCSDS_OMM_VERS": "3.0",
    "COMMENT": "GENERATED VIA SPACE-TRACK.ORG API",
    "CREATION_DATE": "2026-02-19T17:59:09",
    "ORIGINATOR": "18 SPCS",
    "OBJECT_NAME": "FENGYUN 1C DEB",
    "OBJECT_ID": "1999-025BAJ",
    "CENTER_NAME": "EARTH",
    "REF_FRAME": "TEME",
    "TIME_SYSTEM": "UTC",
    "MEAN_ELEMENT_THEORY": "SGP4",
    "EPOCH": "2026-02-19T15:32:35.268288",
    "MEAN_MOTION": "14.52560769",
    "ECCENTRICITY": "0.01471246",
    "INCLINATION": "98.8384",
    "RA_OF_ASC_NODE": "115.0644",
    "ARG_OF_PERICENTER": "251.9868",
    "MEAN_ANOMALY": "264.3559",
    "EPHEMERIS_TYPE": "0",
    "CLASSIFICATION_TYPE": "U",
    "NORAD_CAT_ID": "30944",
    "ELEMENT_SET_NO": "999",
    "REV_AT_EPOCH": "52",
    "BSTAR": "0.00012992739000",
    "MEAN_MOTION_DOT": "0.00000552",
    "MEAN_MOTION_DDOT": "0.0000000000000",
    "SEMIMAJOR_AXIS": "7095.434",
    "PERIOD": "99.135",
    "APOAPSIS": "821.690",
    "PERIAPSIS": "612.908",
    "OBJECT_TYPE": "DEBRIS",
    "RCS_SIZE": "SMALL",
    "COUNTRY_CODE": "PRC",
    "LAUNCH_DATE": "1999-05-10",
    "SITE": "TSC",
    "DECAY_DATE": null,
    "FILE": "5039972",
    "GP_ID": "313165107",
    "TLE_LINE0": "0 FENGYUN 1C DEB",
    "TLE_LINE1": "1 30944U 99025BAJ 26050.64763042  .00000552  00000-0  12993-3 0  9999",
    "TLE_LINE2": "2 30944  98.8384 115.0644 0147125 251.9868 264.3559 14.52560769   528"
  },
  {
    "CCSDS_OMM_VERS": "3.0",
    "COMMENT": "GENERATED VIA SPACE-TRACK.ORG API",
    "CREATION_DATE": "2026-02-19T17:59:09",
    "ORIGINATOR": "18 SPCS",
    "OBJECT_NAME": "FENGYUN 1C DEB",
    "OBJECT_ID": "1999-025SV",
    "CENTER_NAME": "EARTH",
    "REF_FRAME": "TEME",
    "TIME_SYSTEM": "UTC",
    "MEAN_ELEMENT_THEORY": "SGP4",
    "EPOCH": "2026-02-19T15:31:43.538880",
    "MEAN_MOTION": "14.21229031",
    "ECCENTRICITY": "0.00427641",
    "INCLINATION": "98.8190",
    "RA_OF_ASC_NODE": "118.4256",
    "ARG_OF_PERICENTER": "115.4122",
    "MEAN_ANOMALY": "38.7961",
    "EPHEMERIS_TYPE": "0",
    "CLASSIFICATION_TYPE": "U",
    "NORAD_CAT_ID": "30140",
    "ELEMENT_SET_NO": "999",
    "REV_AT_EPOCH": "98122",
    "BSTAR": "0.00114647270000",
    "MEAN_MOTION_DOT": "0.00002476",
    "MEAN_MOTION_DDOT": "0.0000000000000",
    "SEMIMAJOR_AXIS": "7199.336",
    "PERIOD": "101.321",
    "APOAPSIS": "851.989",
    "PERIAPSIS": "790.414",
    "OBJECT_TYPE": "DEBRIS",
    "RCS_SIZE": "SMALL",
    "COUNTRY_CODE": "PRC",
    "LAUNCH_DATE": "1999-05-10",
    "SITE": "TSC",
    "DECAY_DATE": null,
    "FILE": "5039972",
    "GP_ID": "313163837",
    "TLE_LINE0": "0 FENGYUN 1C DEB",
    "TLE_LINE1": "1 30140U 99025SV  26050.64703170  .00002476  00000-0  11465-2 0  9992",
    "TLE_LINE2": "2 30140  98.8190 118.4256 0042764 115.4122  38.7961 14.21229031981222"
  }
]